CZ-4B R/B               
1 28415U 04035C   25253.33563928  .00005818  00000+0  23005-3 0  9992
2 28415  97.3735 284.9887 0033260 245.3472 114.4301 15.25350839152387
CZ-2C R/B               
1 28480U 04046B   25253.20555678  .00000223  00000+0  98692-4 0  9995
2 28480  98.1908 174.4388 0139090 329.0986  30.2064 14.26874743 82767
ARIANE 5 R/B            
1 28499U 04049H   25253.38857820  .00001238  00000+0  14451-3 0  9998
2 28499  98.2457  50.3871 0084371 214.6870 144.8825 14.84681079119038
CZ-2D R/B               
1 28738U 05024B   25252.98498255  .00018604  00000+0  36969-3 0  9999
2 28738  97.3698 258.3624 0004350 355.1582   4.9625 15.47011441111730
ALOS (DAICHI)           
1 28931U 06002A   25253.59882457  .00001480  00000+0  26076-3 0  9992
2 28931  98.0921 205.8608 0002085 103.7042 256.4396 14.69001535 47038
H-2A R/B                
1 28932U 06002B   25253.29188519  .00009270  00000+0  51945-3 0  9996
2 28932  98.2226  20.6579 0057776 133.3513 227.2551 15.12215640 67133
RESURS-DK 1             
1 29228U 06021A   25253.40335317  .00002317  00000+0  14314-3 0  9993
2 29228  69.9363 342.9035 0003963 347.1656  12.9408 15.11404448 60271
CZ-4B R/B               
1 29507U 06046C   25253.38833681  .00004640  00000+0  25158-3 0  9993
2 29507  97.5879 293.7847 0035511 168.8233 191.3796 15.14534989 32736
CZ-2C R/B               
1 31114U 07010B   25253.29745277  .00000129  00000+0  78082-4 0  9998
2 31114  98.3886  10.7000 0060206  98.6775 262.1229 14.20158088954119
COSMO-SKYMED 1          
1 31598U 07023A   25253.63767714  .00002047  00000+0  19347-3 0  9995
2 31598  97.8890  78.4727 0001132  87.6797 272.4553 14.94833203987981
COSMOS 2428             
1 31792U 07029A   25253.00232559 -.00000106  00000+0 -31014-4 0  9994
2 31792  70.9420 222.6481 0003976 211.6536 148.4347 14.12904219938576
SL-16 R/B               
1 31793U 07029B   25253.29429302 -.00000213  00000+0 -85356-4 0  9997
2 31793  70.9759 191.5760 0002981 271.6578 250.2615 14.14793578939851
KORONAS-FOTON           
1 33504U 09003A   25253.29533542  .00008919  00000+0  23568-3 0  9990
2 33504  82.4289 102.6914 0013265  84.6288 275.6469 15.38173028917965
CZ-2C R/B               
1 37731U 11030B   25252.86057324  .00001091  00000+0  14643-3 0  9998
2 37731  97.8235 209.1698 0052286 217.5238 196.5036 14.80445513763330
H-2A R/B                
1 38341U 12025E   25253.27329510  .00003042  00000+0  28956-3 0  9996
2 38341  98.4429 201.4626 0045980 180.3717 179.7474 14.93495351721273
SHIJIAN-16 (SJ-16)      
1 39358U 13057A   25253.38132871  .00001849  00000+0  18686-3 0  9997
2 39358  74.9728 166.2314 0017311 194.0640 166.0068 14.91544082644613
SL-4 R/B                
1 39679U 14021B   25253.11856410  .00007393  00000+0  19843-3 0  9994
2 39679  51.6088 134.3434 0109813 166.9693 193.4166 15.33170753628515
ALOS-2                  
1 39766U 14029A   25253.61260226  .00000092  00000+0  19220-4 0  9997
2 39766  97.9224 349.7897 0001381  96.1673 263.9696 14.79471059610249
YAOGAN-29               
1 41038U 15069A   25253.62860010  .00000364  00000+0  51813-4 0  9991
2 41038  98.0321 276.4446 0001451 153.5411 206.5876 14.82729010529199
ASTRO-H (HITOMI)        
1 41337U 16012A   25253.21974370  .00002600  00000+0  15673-3 0  9990
2 41337  30.9994  79.8634 0010190 320.2925  39.6967 15.08498809524941
HXMT (HUIYAN)           
1 42758U 17034A   25253.59550440  .00004220  00000+0  23309-3 0  9997
2 42758  43.0148 295.9015 0033642 180.3630 179.7197 15.14717665455208
CZ-2C R/B               
1 43521U 18054D   25253.21846815  .00045752  00000+0  57228-3 0  9994
2 43521  35.1364  86.5768 0032015 334.2725  25.6411 15.58081186400394
SAOCOM 1A               
1 43641U 18076A   25253.57484554  .00000404  00000+0  57316-4 0  9992
2 43641  97.8899  79.3302 0001327  90.3613 269.7752 14.82148004374687
H-2A R/B                
1 43682U 18084L   25253.21861007  .00015173  00000+0  47365-3 0  9990
2 43682  98.8836  68.2656 0030167 286.1408  73.6509 15.32892445378052
SAOCOM 1B               
1 46265U 20059A   25253.60610062  .00000386  00000+0  55113-4 0  9992
2 46265  97.8910  78.4682 0001527  90.2898 269.8490 14.82151595272072
CSS (TIANHE)            
1 48274U 21035A   25253.37711400  .00021367  00000+0  26710-3 0  9993
2 48274  41.4645 224.2610 0005219 319.2676  40.7771 15.59303707249448
COSMOS 2550             
1 48865U 21056A   25252.95756785 -.00000094  00000+0  29789-5 0  9996
2 48865  67.1418 227.6702 0008359 270.7407  89.2789 15.33826651235742
CZ-2C R/B               
1 52794U 22058K   25253.43646766  .00014269  00000+0  31390-3 0  9993
2 52794  50.1919 157.1365 0054266 168.2138 192.0112 15.42651618182202
GSLV R/B                
1 54149U 22138AN  25253.39256720  .00002916  00000+0  26095-3 0  9992
2 54149  87.3790 226.7089 0025104  87.1625 273.2478 14.95246101156978
XRISM                   
1 57800U 23137A   25253.34086002  .00005441  00000+0  33086-3 0  9992
2 57800  31.0035   7.8890 0008282  28.4987 331.6103 15.08893568110501
ACS3                    
1 59588U 24077B   25253.41434146  .00016326  00000+0  15423-1 0  9992
2 59588  97.3985 229.4537 0048535 355.6119   4.4607 13.80614568 69249
